0 FENGYUN 1C DEB
1 31281U 99025BNP 13282.31157605  .00010896  00000-0  15814-2 0  8392
2 31281 098.3322 216.5907 0309192 352.2679 158.4384 14.48515713346142
0 FENGYUN 1C DEB
1 31281U 99025BNP 13284.31497185  .00010227  00000-0  14855-2 0  8408
2 31281 098.3318 218.5716 0308925 346.1379 165.5857 14.48548880346436
0 FENGYUN 1C DEB
1 31281U 99025BNP 13286.09362392  .00008875  00000-0  12910-2 0  8413
2 31281 098.3317 220.3295 0308640 340.7054 080.9539 14.48579485346692
0 FENGYUN 1C DEB
1 31281U 99025BNP 13287.28535095  .00008765  00000-0  12751-2 0  8429
2 31281 098.3323 221.5083 0308544 337.0554 175.7249 14.48598210346861
0 FENGYUN 1C DEB
1 31281U 99025BNP 13288.32180249  .00011840  00000-0  17185-2 0  8437
2 31281 098.3328 222.5333 0308383 333.8816 180.8225 14.48621942347019
0 FENGYUN 1C DEB
1 31281U 99025BNP 13289.62775969  .00011328  00000-0  16447-2 0  8442
2 31281 098.3333 223.8250 0308220 329.8875 151.5137 14.48645409347209
0 FENGYUN 1C DEB
1 31281U 99025BNP 13291.06508398  .00010559  00000-0  15341-2 0  8451
2 31281 098.3338 225.2460 0307979 325.4796 087.4458 14.48677955347414
0 FENGYUN 1C DEB
1 31281U 99025BNP 13292.78661353  .00010151  00000-0  14753-2 0  8467
2 31281 098.3340 226.9484 0307750 320.1968 065.7704 14.48711923347665
0 FENGYUN 1C DEB
1 31281U 99025BNP 13294.78998575  .00011869  00000-0  17234-2 0  8473
2 31281 098.3340 228.9302 0307453 314.0651 074.2411 14.48749159347951
0 FENGYUN 1C DEB
1 31281U 99025BNP 13296.03823036  .00010897  00000-0  15833-2 0  8486
2 31281 098.3339 230.1652 0307280 310.2332 104.5377 14.48773899348131
